[
  {
    "OBJECT_NAME": "STARLINK-34657",
    "OBJECT_ID": "25147W",
    "EPOCH": "2025-11-11T07:15:27.366912",
    "MEAN_MOTION": 15.3024623,
    "ECCENTRICITY": 0.000246,
    "INCLINATION": 53.1541,
    "RA_OF_ASC_NODE": 72.8216,
    "ARG_OF_PERICENTER": 81.0645,
    "MEAN_ANOMALY": 279.0634,
    "EPHEMERIS_TYPE": 0,
    "CLASSIFICATION_TYPE": "U",
    "NORAD_CAT_ID": 64775,
    "ELEMENT_SET_NO": 999,
    "REV_AT_EPOCH": 2062,
    "BSTAR": 0.0021843,
    "MEAN_MOTION_DOT": 0.00064997,
    "MEAN_MOTION_DDOT": 0.0,
    "TLE_LINE1": "1 64775U 25147W   25315.30240008  .00064997  00000+0  21843-2 0  9995",
    "TLE_LINE2": "2 64775  53.1541  72.8216 0002460  81.0645 279.0634 15.30246230 20629",
    "COMMENT": "Grouped by shell and plane from TLE"
  },
  {
    "OBJECT_NAME": "STARLINK-34637",
    "OBJECT_ID": "25147X",
    "EPOCH": "2025-11-11T07:06:21.455424",
    "MEAN_MOTION": 15.30196096,
    "ECCENTRICITY": 0.0002599,
    "INCLINATION": 53.1575,
    "RA_OF_ASC_NODE": 72.7823,
    "ARG_OF_PERICENTER": 88.8618,
    "MEAN_ANOMALY": 271.2681,
    "EPHEMERIS_TYPE": 0,
    "CLASSIFICATION_TYPE": "U",
    "NORAD_CAT_ID": 64776,
    "ELEMENT_SET_NO": 999,
    "REV_AT_EPOCH": 2055,
    "BSTAR": 0.0013683999999999999,
    "MEAN_MOTION_DOT": 0.00040388,
    "MEAN_MOTION_DDOT": 0.0,
    "TLE_LINE1": "1 64776U 25147X   25315.29608166  .00040388  00000+0  13684-2 0  9999",
    "TLE_LINE2": "2 64776  53.1575  72.7823 0002599  88.8618 271.2681 15.30196096 20550",
    "COMMENT": "Grouped by shell and plane from TLE"
  },
  {
    "OBJECT_NAME": "STARLINK-34547",
    "OBJECT_ID": "25147Y",
    "EPOCH": "2025-11-10T15:10:36.977952",
    "MEAN_MOTION": 15.30206131,
    "ECCENTRICITY": 8.88e-05,
    "INCLINATION": 53.1567,
    "RA_OF_ASC_NODE": 75.7513,
    "ARG_OF_PERICENTER": 63.2906,
    "MEAN_ANOMALY": 296.8186,
    "EPHEMERIS_TYPE": 0,
    "CLASSIFICATION_TYPE": "U",
    "NORAD_CAT_ID": 64777,
    "ELEMENT_SET_NO": 999,
    "REV_AT_EPOCH": 2046,
    "BSTAR": 0.0013900000000000002,
    "MEAN_MOTION_DOT": 0.00041043,
    "MEAN_MOTION_DDOT": 0.0,
    "TLE_LINE1": "1 64777U 25147Y   25314.63237243  .00041043  00000+0  13900-2 0  9991",
    "TLE_LINE2": "2 64777  53.1567  75.7513 0000888  63.2906 296.8186 15.30206131 20462",
    "COMMENT": "Grouped by shell and plane from TLE"
  },
  {
    "OBJECT_NAME": "STARLINK-34585",
    "OBJECT_ID": "25147AA",
    "EPOCH": "2025-11-10T11:44:16.352160",
    "MEAN_MOTION": 15.30205937,
    "ECCENTRICITY": 0.0001517,
    "INCLINATION": 53.1622,
    "RA_OF_ASC_NODE": 76.2808,
    "ARG_OF_PERICENTER": 80.9655,
    "MEAN_ANOMALY": 279.1518,
    "EPHEMERIS_TYPE": 0,
    "CLASSIFICATION_TYPE": "U",
    "NORAD_CAT_ID": 64779,
    "ELEMENT_SET_NO": 999,
    "REV_AT_EPOCH": 2045,
    "BSTAR": 0.0013119,
    "MEAN_MOTION_DOT": 0.00038705,
    "MEAN_MOTION_DDOT": 0.0,
    "TLE_LINE1": "1 64779U 25147AA  25314.48907815  .00038705  00000+0  13119-2 0  9998",
    "TLE_LINE2": "2 64779  53.1622  76.2808 0001517  80.9655 279.1518 15.30205937 20451",
    "COMMENT": "Grouped by shell and plane from TLE"
  },
  {
    "OBJECT_NAME": "STARLINK-34491",
    "OBJECT_ID": "25147AB",
    "EPOCH": "2025-11-11T01:41:37.807872",
    "MEAN_MOTION": 15.30239993,
    "ECCENTRICITY": 9.87e-05,
    "INCLINATION": 53.1618,
    "RA_OF_ASC_NODE": 73.5079,
    "ARG_OF_PERICENTER": 48.0886,
    "MEAN_ANOMALY": 312.0199,
    "EPHEMERIS_TYPE": 0,
    "CLASSIFICATION_TYPE": "U",
    "NORAD_CAT_ID": 64780,
    "ELEMENT_SET_NO": 999,
    "REV_AT_EPOCH": 2059,
    "BSTAR": 0.0017993000000000002,
    "MEAN_MOTION_DOT": 0.00053379,
    "MEAN_MOTION_DDOT": 0.0,
    "TLE_LINE1": "1 64780U 25147AB  25315.07057648  .00053379  00000+0  17993-2 0  9994",
    "TLE_LINE2": "2 64780  53.1618  73.5079 0000987  48.0886 312.0199 15.30239993 20595",
    "COMMENT": "Grouped by shell and plane from TLE"
  },
  {
    "OBJECT_NAME": "STARLINK-34582",
    "OBJECT_ID": "25147AC",
    "EPOCH": "2025-11-11T01:43:08.863104",
    "MEAN_MOTION": 15.30223994,
    "ECCENTRICITY": 9.31e-05,
    "INCLINATION": 53.1608,
    "RA_OF_ASC_NODE": 73.5134,
    "ARG_OF_PERICENTER": 64.762,
    "MEAN_ANOMALY": 295.3478,
    "EPHEMERIS_TYPE": 0,
    "CLASSIFICATION_TYPE": "U",
    "NORAD_CAT_ID": 64781,
    "ELEMENT_SET_NO": 999,
    "REV_AT_EPOCH": 2052,
    "BSTAR": 0.0009101700000000001,
    "MEAN_MOTION_DOT": 0.00026714,
    "MEAN_MOTION_DDOT": 0.0,
    "TLE_LINE1": "1 64781U 25147AC  25315.07163036  .00026714  00000+0  91017-3 0  9997",
    "TLE_LINE2": "2 64781  53.1608  73.5134 0000931  64.7620 295.3478 15.30223994 20527",
    "COMMENT": "Grouped by shell and plane from TLE"
  },
  {
    "OBJECT_NAME": "STARLINK-34482",
    "OBJECT_ID": "25147AD",
    "EPOCH": "2025-11-10T11:45:48.002688",
    "MEAN_MOTION": 15.30206352,
    "ECCENTRICITY": 9.73e-05,
    "INCLINATION": 53.158,
    "RA_OF_ASC_NODE": 76.2826,
    "ARG_OF_PERICENTER": 87.7278,
    "MEAN_ANOMALY": 272.3834,
    "EPHEMERIS_TYPE": 0,
    "CLASSIFICATION_TYPE": "U",
    "NORAD_CAT_ID": 64782,
    "ELEMENT_SET_NO": 999,
    "REV_AT_EPOCH": 2054,
    "BSTAR": 0.0017988000000000001,
    "MEAN_MOTION_DOT": 0.00053309,
    "MEAN_MOTION_DDOT": 0.0,
    "TLE_LINE1": "1 64782U 25147AD  25314.49013892  .00053309  00000+0  17988-2 0  9991",
    "TLE_LINE2": "2 64782  53.1580  76.2826 0000973  87.7278 272.3834 15.30206352 20547",
    "COMMENT": "Grouped by shell and plane from TLE"
  },
  {
    "OBJECT_NAME": "STARLINK-34697",
    "OBJECT_ID": "25150B",
    "EPOCH": "2025-11-11T07:30:34.335360",
    "MEAN_MOTION": 15.4276497,
    "ECCENTRICITY": 0.0002914,
    "INCLINATION": 70.0016,
    "RA_OF_ASC_NODE": 78.5919,
    "ARG_OF_PERICENTER": 275.8931,
    "MEAN_ANOMALY": 84.1919,
    "EPHEMERIS_TYPE": 0,
    "CLASSIFICATION_TYPE": "U",
    "NORAD_CAT_ID": 64791,
    "ELEMENT_SET_NO": 999,
    "REV_AT_EPOCH": 1864,
    "BSTAR": 0.0018402,
    "MEAN_MOTION_DOT": 0.00081436,
    "MEAN_MOTION_DDOT": 0.0,
    "TLE_LINE1": "1 64791U 25150B   25315.31289740  .00081436  00000+0  18402-2 0  9998",
    "TLE_LINE2": "2 64791  70.0016  78.5919 0002914 275.8931  84.1919 15.42764970 18649",
    "COMMENT": "Grouped by shell and plane from TLE"
  },
  {
    "OBJECT_NAME": "STARLINK-34632",
    "OBJECT_ID": "25150C",
    "EPOCH": "2025-11-11T07:10:17.374944",
    "MEAN_MOTION": 15.42748391,
    "ECCENTRICITY": 0.0002626,
    "INCLINATION": 69.9993,
    "RA_OF_ASC_NODE": 74.812,
    "ARG_OF_PERICENTER": 265.2706,
    "MEAN_ANOMALY": 94.8176,
    "EPHEMERIS_TYPE": 0,
    "CLASSIFICATION_TYPE": "U",
    "NORAD_CAT_ID": 64792,
    "ELEMENT_SET_NO": 999,
    "REV_AT_EPOCH": 1873,
    "BSTAR": 0.0017965000000000001,
    "MEAN_MOTION_DOT": 0.00079432,
    "MEAN_MOTION_DDOT": 0.0,
    "TLE_LINE1": "1 64792U 25150C   25315.29881221  .00079432  00000+0  17965-2 0  9994",
    "TLE_LINE2": "2 64792  69.9993  74.8120 0002626 265.2706  94.8176 15.42748391 18739",
    "COMMENT": "Grouped by shell and plane from TLE"
  },
  {
    "OBJECT_NAME": "STARLINK-34693",
    "OBJECT_ID": "25150D",
    "EPOCH": "2025-11-11T07:07:13.971936",
    "MEAN_MOTION": 15.42792961,
    "ECCENTRICITY": 0.0002189,
    "INCLINATION": 69.9985,
    "RA_OF_ASC_NODE": 78.5296,
    "ARG_OF_PERICENTER": 276.5517,
    "MEAN_ANOMALY": 83.5416,
    "EPHEMERIS_TYPE": 0,
    "CLASSIFICATION_TYPE": "U",
    "NORAD_CAT_ID": 64793,
    "ELEMENT_SET_NO": 999,
    "REV_AT_EPOCH": 1864,
    "BSTAR": 0.0020889,
    "MEAN_MOTION_DOT": 0.00092675,
    "MEAN_MOTION_DDOT": 0.0,
    "TLE_LINE1": "1 64793U 25150D   25315.29668949  .00092675  00000+0  20889-2 0  9998",
    "TLE_LINE2": "2 64793  69.9985  78.5296 0002189 276.5517  83.5416 15.42792961 18649",
    "COMMENT": "Grouped by shell and plane from TLE"
  },
  {
    "OBJECT_NAME": "STARLINK-34666",
    "OBJECT_ID": "25150E",
    "EPOCH": "2025-11-11T01:52:06.525120",
    "MEAN_MOTION": 15.42765955,
    "ECCENTRICITY": 0.0004685,
    "INCLINATION": 69.9979,
    "RA_OF_ASC_NODE": 79.3776,
    "ARG_OF_PERICENTER": 274.7538,
    "MEAN_ANOMALY": 85.3108,
    "EPHEMERIS_TYPE": 0,
    "CLASSIFICATION_TYPE": "U",
    "NORAD_CAT_ID": 64794,
    "ELEMENT_SET_NO": 999,
    "REV_AT_EPOCH": 1860,
    "BSTAR": 0.0013977,
    "MEAN_MOTION_DOT": 0.00061674,
    "MEAN_MOTION_DDOT": 0.0,
    "TLE_LINE1": "1 64794U 25150E   25315.07785330  .00061674  00000+0  13977-2 0  9994",
    "TLE_LINE2": "2 64794  69.9979  79.3776 0004685 274.7538  85.3108 15.42765955 18608",
    "COMMENT": "Grouped by shell and plane from TLE"
  },
  {
    "OBJECT_NAME": "STARLINK-34567",
    "OBJECT_ID": "25150F",
    "EPOCH": "2025-11-11T07:42:15.063552",
    "MEAN_MOTION": 15.42770008,
    "ECCENTRICITY": 0.000222,
    "INCLINATION": 70.0005,
    "RA_OF_ASC_NODE": 78.6198,
    "ARG_OF_PERICENTER": 280.2913,
    "MEAN_ANOMALY": 79.8019,
    "EPHEMERIS_TYPE": 0,
    "CLASSIFICATION_TYPE": "U",
    "NORAD_CAT_ID": 64795,
    "ELEMENT_SET_NO": 999,
    "REV_AT_EPOCH": 1864,
    "BSTAR": 0.0015281000000000001,
    "MEAN_MOTION_DOT": 0.00067483,
    "MEAN_MOTION_DDOT": 0.0,
    "TLE_LINE1": "1 64795U 25150F   25315.32100768  .00067483  00000+0  15281-2 0  9993",
    "TLE_LINE2": "2 64795  70.0005  78.6198 0002220 280.2913  79.8019 15.42770008 18642",
    "COMMENT": "Grouped by shell and plane from TLE"
  },
  {
    "OBJECT_NAME": "STARLINK-34646",
    "OBJECT_ID": "25150G",
    "EPOCH": "2025-11-11T02:15:27.889920",
    "MEAN_MOTION": 15.42771695,
    "ECCENTRICITY": 0.0002493,
    "INCLINATION": 70.0016,
    "RA_OF_ASC_NODE": 79.0263,
    "ARG_OF_PERICENTER": 275.4336,
    "MEAN_ANOMALY": 84.6561,
    "EPHEMERIS_TYPE": 0,
    "CLASSIFICATION_TYPE": "U",
    "NORAD_CAT_ID": 64796,
    "ELEMENT_SET_NO": 999,
    "REV_AT_EPOCH": 1950,
    "BSTAR": 0.0025842,
    "MEAN_MOTION_DOT": 0.00114937,
    "MEAN_MOTION_DDOT": 0.0,
    "TLE_LINE1": "1 64796U 25150G   25315.09407280  .00114937  00000+0  25842-2 0  9998",
    "TLE_LINE2": "2 64796  70.0016  79.0263 0002493 275.4336  84.6561 15.42771695 19505",
    "COMMENT": "Grouped by shell and plane from TLE"
  }
]